OBJECT_NAME,OBJECT_ID,EPOCH,MEAN_MOTION,ECCENTRICITY,INCLINATION,RA_OF_ASC_NODE,ARG_OF_PERICENTER,MEAN_ANOMALY,EPHEMERIS_TYPE,CLASSIFICATION_TYPE,NORAD_CAT_ID,ELEMENT_SET_NO,REV_AT_EPOCH,BSTAR,MEAN_MOTION_DOT,MEAN_MOTION_DDOT
TDRS 3,1988-091B,2026-07-01T18:55:50.837376,1.00268745,.00371387,12.5907,340.9023,356.6262,177.3834,0,U,19548,999,12553,0,-.291E-5,0
FLTSATCOM 8 (USA 46),1989-077A,2026-07-01T21:28:06.756960,1.00269906,.00037504,12.4173,351.0747,62.3469,314.2989,0,U,20253,999,26071,0,-.36E-5,0
SKYNET 4C,1990-079A,2026-06-11T04:50:51.491904,1.00274127,.00024002,13.3424,349.8525,96.2313,279.5534,0,U,20776,999,13083,0,.132E-5,0
TDRS 5,1991-054B,2026-07-01T14:02:54.836160,1.00269239,.0006482,14.0691,353.6694,259.2896,69.7721,0,U,21639,999,12785,0,.9E-6,0
TDRS 6,1993-003B,2026-07-01T23:16:06.510720,1.00265958,.00087602,14.1830,356.9484,180.2553,45.8162,0,U,22314,999,12255,0,-.29E-5,0
UFO 2 (USA 95),1993-056A,2026-07-01T19:45:36.694368,1.00275648,.00042458,11.8997,3.4735,8.8478,232.6094,0,U,22787,999,11869,0,.131E-5,0
USA 99 (MILSTAR-1 1),1994-009A,2026-07-01T11:57:46.620864,0.98721864,.00009865,17.6468,27.5559,181.1018,175.5085,0,U,22988,999,3308,0,-.92E-6,0
UFO 4 (USA 108),1995-003A,2026-07-01T18:16:12.513216,1.00274377,.00029378,9.6884,13.1357,83.7893,269.1621,0,U,23467,999,11509,0,-.15E-6,0
TDRS 7,1995-035B,2026-07-01T21:39:40.791744,1.00277407,.00117096,13.3710,348.0882,82.9101,262.9741,0,U,23613,999,11339,0,-.233E-5,0
USA 115 (MILSTAR-1 2),1995-060A,2026-07-01T20:28:42.115872,1.00273448,.00064697,14.0769,3.6337,115.5656,17.8464,0,U,23712,999,3303,0,-.197E-5,0
INMARSAT 3-F1,1996-020A,2026-07-01T15:12:55.846944,0.99978173,.00039623,10.6303,46.5005,72.1809,278.7761,0,U,23839,999,11039,0,-.19E-6,0
INMARSAT 3-F2,1996-053A,2026-07-01T14:32:35.418336,0.99998362,.00064203,9.8887,53.7887,42.6275,176.6901,0,U,24307,999,10906,0,-.334E-5,0
INMARSAT 3-F3,1996-070A,2026-07-01T19:17:32.119008,0.99989473,.00033019,10.3490,49.5123,56.2632,130.9093,0,U,24674,999,10805,0,.114E-5,0
USA 134,1997-065A,2026-07-01T16:32:08.353248,1.00271351,.0002695,12.8003,21.6104,347.7340,45.9987,0,U,25019,999,3310,0,-.58E-6,0
INMARSAT 3-F5,1998-006B,2026-07-01T02:29:27.034368,1.00271204,.00042753,9.7224,53.1199,45.0715,164.3657,0,U,25153,999,10403,0,-.286E-5,0
ABS-6,1999-053A,2026-07-01T21:37:43.336128,1.00271933,.00030434,0.0447,276.0389,162.5167,324.8161,0,U,25924,999,9798,0,-.109E-5,0
UFO 10 (USA 146),1999-063A,2026-06-29T08:52:48.794880,1.00268568,.00015526,9.8449,27.1462,73.9701,286.4977,0,U,25967,999,9746,0,-.185E-5,0
ASIASTAR,2000-016A,2026-07-01T21:23:28.986144,1.00270075,.00045338,9.1617,57.9954,42.4796,245.3429,0,U,26107,999,9606,0,-.328E-5,0
USA 149 (DSP 20),2000-024A,2026-07-01T06:34:29.360352,1.00281769,.0001357,13.1804,11.7487,319.1625,241.9577,0,U,26356,999,3305,0,.1E-5,0
TDRS 8,2000-034A,2026-07-01T14:25:55.437312,1.00274936,.00045647,12.7059,31.1984,26.5786,163.1397,0,U,26388,999,9532,0,-.192E-5,0
NSS-11,2000-059A,2026-07-01T19:59:55.774752,1.00271541,.00031289,2.1623,81.2269,16.1414,298.4905,0,U,26554,999,4143,0,.34E-6,0
USA 153,2000-065A,2026-06-30T11:17:35.543328,1.00267599,.00030357,11.6465,35.3089,54.5579,132.3965,0,U,26575,999,3306,0,-.323E-5,0
AMC-6,2000-067A,2026-07-01T21:56:34.028736,1.00273003,.00040942,0.1878,83.4365,28.2287,2.4139,0,U,26580,999,9404,0,.98E-6,0
USA 157 (MILSTAR-2 2),2001-009A,2026-07-01T13:50:35.540736,1.00269385,.00398876,11.5575,19.6711,178.1891,139.3617,0,U,26715,999,3308,0,.115E-5,0
INTELSAT 902 (IS-902),2001-039A,2026-07-01T12:04:45.951168,1.00272416,.00042762,6.1523,71.6085,27.0013,312.0253,0,U,26900,999,9083,0,-.277E-5,0
USA 164 (MILSTAR-2 3),2002-001A,2026-06-29T19:54:38.730816,1.00272159,.00994174,11.1939,21.8279,8.8560,204.7984,0,U,27168,999,3308,0,.101E-5,0
INTELSAT 904 (IS-904),2002-007A,2026-07-01T10:27:32.587776,1.00271894,.00063432,6.9534,69.0143,15.1246,320.7588,0,U,27380,999,5190,0,-.219E-5,0
DIRECTV 5 (TEMPO 1),2002-023A,2026-07-01T20:20:53.764800,1.00271741,.00035392,4.9131,75.1319,33.9193,5.9629,0,U,27426,999,8827,0,-.5E-6,0
INTELSAT 905 (IS-905),2002-027A,2026-07-01T18:30:33.636960,1.00272219,.00040322,6.7880,69.6253,32.0997,318.5300,0,U,27438,999,5150,0,.1E-5,0
GALAXY 3C (G-3C),2002-030A,2026-07-01T13:18:58.449888,1.00272276,.00019454,3.7679,77.7949,28.1791,278.5502,0,U,27445,999,4663,0,-.145E-5,0
INTELSAT 906 (IS-906),2002-041A,2026-07-01T19:27:58.837824,1.00270414,.00040744,5.8387,72.7411,9.6610,193.5969,0,U,27513,999,8717,0,.2E-6,0
